{
  "type": "FeatureCollection",
  "features": [
    {
      "type": "Feature",
      "properties": {
        "norad_id": 2807,
        "name": "OPS 7218 (TRANSIT 16)",
        "group": "nnss",
        "lat": 52.412859125397944,
        "lon": -5.3969990048347904,
        "alt_km": 1060.4558924529993,
        "timestamp": "2025-12-07T20:38:14.332389+00:00",
        "meta_object_name": "OPS 7218 (TRANSIT 16)",
        "meta_object_id": "1967-048A",
        "meta_epoch": "2025-12-07T07:58:55.578144",
        "meta_mean_motion": 13.50720774,
        "meta_eccentricity": 0.00217152,
        "meta_inclination": 89.6733,
        "meta_ra_of_asc_node": 354.1957,
        "meta_arg_of_pericenter": 128.619,
        "meta_mean_anomaly": 241.5771,
        "meta_ephemeris_type": 0,
        "meta_classification_type": "U",
        "meta_norad_cat_id": 2807,
        "meta_element_set_no": 999,
        "meta_rev_at_epoch": 88203,
        "meta_bstar": 0.00024425931,
        "meta_mean_motion_dot": 1.68e-06,
        "meta_mean_motion_ddot": 0,
        "tle_line1": "1 02807U 67048A   25341.33258771  .00000168  00000+0  24426-3 0  9998",
        "tle_line2": "2 02807  89.6733 354.1957 0021715 128.6190 241.5771 13.50720774882036"
      },
      "geometry": {
        "type": "Point",
        "coordinates": [
          -5.3969990048347904,
          52.412859125397944
        ]
      }
    },
    {
      "type": "Feature",
      "properties": {
        "norad_id": 2965,
        "name": "OPS 4947 (TRANSIT 17)",
        "group": "nnss",
        "lat": 69.23507307414003,
        "lon": 26.78739029603327,
        "alt_km": 1087.0937271789326,
        "timestamp": "2025-12-07T20:38:14.332411+00:00",
        "meta_object_name": "OPS 4947 (TRANSIT 17)",
        "meta_object_id": "1967-092A",
        "meta_epoch": "2025-12-07T00:51:26.304768",
        "meta_mean_motion": 13.53451478,
        "meta_eccentricity": 0.00458798,
        "meta_inclination": 89.2501,
        "meta_ra_of_asc_node": 24.8706,
        "meta_arg_of_pericenter": 251.61,
        "meta_mean_anomaly": 124.3776,
        "meta_ephemeris_type": 0,
        "meta_classification_type": "U",
        "meta_norad_cat_id": 2965,
        "meta_element_set_no": 999,
        "meta_rev_at_epoch": 87020,
        "meta_bstar": 0.00027866329,
        "meta_mean_motion_dot": 1.99e-06,
        "meta_mean_motion_ddot": 0,
        "tle_line1": "1 02965U 67092A   25341.03572112  .00000199  00000+0  27866-3 0  9992",
        "tle_line2": "2 02965  89.2501  24.8706 0045879 251.6100 124.3776 13.53451478870202"
      },
      "geometry": {
        "type": "Point",
        "coordinates": [
          26.78739029603327,
          69.23507307414003
        ]
      }
    },
    {
      "type": "Feature",
      "properties": {
        "norad_id": 3133,
        "name": "OPS 7034 (TRANSIT 18)",
        "group": "nnss",
        "lat": -72.42338937992952,
        "lon": 93.53853662333829,
        "alt_km": 1054.0506453386206,
        "timestamp": "2025-12-07T20:38:14.332425+00:00",
        "meta_object_name": "OPS 7034 (TRANSIT 18)",
        "meta_object_id": "1968-012A",
        "meta_epoch": "2025-12-07T06:01:22.867968",
        "meta_mean_motion": 13.51563867,
        "meta_eccentricity": 0.00733268,
        "meta_inclination": 90.0274,
        "meta_ra_of_asc_node": 273.6234,
        "meta_arg_of_pericenter": 185.0943,
        "meta_mean_anomaly": 345.4495,
        "meta_ephemeris_type": 0,
        "meta_classification_type": "U",
        "meta_norad_cat_id": 3133,
        "meta_element_set_no": 999,
        "meta_rev_at_epoch": 56844,
        "meta_bstar": 0.00028522424,
        "meta_mean_motion_dot": 1.98e-06,
        "meta_mean_motion_ddot": 0,
        "tle_line1": "1 03133U 68012A   25341.25095912  .00000198  00000+0  28522-3 0  9994",
        "tle_line2": "2 03133  90.0274 273.6234 0073326 185.0943 345.4495 13.51563867568448"
      },
      "geometry": {
        "type": "Point",
        "coordinates": [
          93.53853662333829,
          -72.42338937992952
        ]
      }
    },
    {
      "type": "Feature",
      "properties": {
        "norad_id": 4507,
        "name": "NNSS 19 (TRANSIT 19)",
        "group": "nnss",
        "lat": -45.61997682143023,
        "lon": 54.52448788083606,
        "alt_km": 1054.6339468690194,
        "timestamp": "2025-12-07T20:38:14.332437+00:00",
        "meta_object_name": "NNSS 19 (TRANSIT 19)",
        "meta_object_id": "1970-067A",
        "meta_epoch": "2025-12-07T03:30:49.065408",
        "meta_mean_motion": 13.51312971,
        "meta_eccentricity": 0.01709112,
        "meta_inclination": 90.0058,
        "meta_ra_of_asc_node": 234.53,
        "meta_arg_of_pericenter": 309.7142,
        "meta_mean_anomaly": 48.9049,
        "meta_ephemeris_type": 0,
        "meta_classification_type": "U",
        "meta_norad_cat_id": 4507,
        "meta_element_set_no": 999,
        "meta_rev_at_epoch": 72146,
        "meta_bstar": 0.0003397953,
        "meta_mean_motion_dot": 2.49e-06,
        "meta_mean_motion_ddot": 0,
        "tle_line1": "1 04507U 70067A   25341.14640122  .00000249  00000+0  33980-3 0  9991",
        "tle_line2": "2 04507  90.0058 234.5300 0170911 309.7142  48.9049 13.51312971721469"
      },
      "geometry": {
        "type": "Point",
        "coordinates": [
          54.52448788083606,
          -45.61997682143023
        ]
      }
    },
    {
      "type": "Feature",
      "properties": {
        "norad_id": 6909,
        "name": "NNSS 20 (TRANSIT 20)",
        "group": "nnss",
        "lat": -53.8785623969095,
        "lon": -105.07011896879905,
        "alt_km": 1097.3018511821938,
        "timestamp": "2025-12-07T20:38:14.332448+00:00",
        "meta_object_name": "NNSS 20 (TRANSIT 20)",
        "meta_object_id": "1973-081A",
        "meta_epoch": "2025-12-07T03:23:34.164960",
        "meta_mean_motion": 13.71430388,
        "meta_eccentricity": 0.01565943,
        "meta_inclination": 89.8561,
        "meta_ra_of_asc_node": 255.138,
        "meta_arg_of_pericenter": 94.8874,
        "meta_mean_anomaly": 267.0188,
        "meta_ephemeris_type": 0,
        "meta_classification_type": "U",
        "meta_norad_cat_id": 6909,
        "meta_element_set_no": 999,
        "meta_rev_at_epoch": 80284,
        "meta_bstar": 0.00035654827,
        "meta_mean_motion_dot": 3.62e-06,
        "meta_mean_motion_ddot": 0,
        "tle_line1": "1 06909U 73081A   25341.14136765  .00000362  00000+0  35655-3 0  9998",
        "tle_line2": "2 06909  89.8561 255.1380 0156594  94.8874 267.0188 13.71430388802849"
      },
      "geometry": {
        "type": "Point",
        "coordinates": [
          -105.07011896879905,
          -53.8785623969095
        ]
      }
    },
    {
      "type": "Feature",
      "properties": {
        "norad_id": 10457,
        "name": "TRANSAT",
        "group": "nnss",
        "lat": -85.68362950700033,
        "lon": 74.10083808056675,
        "alt_km": 1077.383719952847,
        "timestamp": "2025-12-07T20:38:14.332459+00:00",
        "meta_object_name": "TRANSAT",
        "meta_object_id": "1977-106A",
        "meta_epoch": "2025-12-07T06:52:55.956864",
        "meta_mean_motion": 13.4894237,
        "meta_eccentricity": 0.00248901,
        "meta_inclination": 89.6482,
        "meta_ra_of_asc_node": 78.7901,
        "meta_arg_of_pericenter": 205.513,
        "meta_mean_anomaly": 166.9566,
        "meta_ephemeris_type": 0,
        "meta_classification_type": "U",
        "meta_norad_cat_id": 10457,
        "meta_element_set_no": 999,
        "meta_rev_at_epoch": 36670,
        "meta_bstar": 0.00022260376,
        "meta_mean_motion_dot": 1.5e-06,
        "meta_mean_motion_ddot": 0,
        "tle_line1": "1 10457U 77106A   25341.28675876  .00000150  00000+0  22260-3 0  9992",
        "tle_line2": "2 10457  89.6482  78.7901 0024890 205.5130 166.9566 13.48942370366709"
      },
      "geometry": {
        "type": "Point",
        "coordinates": [
          74.10083808056675,
          -85.68362950700033
        ]
      }
    },
    {
      "type": "Feature",
      "properties": {
        "norad_id": 12458,
        "name": "NOVA 1",
        "group": "nnss",
        "lat": -85.9246927477947,
        "lon": -86.47260883592001,
        "alt_km": 1189.9908609783033,
        "timestamp": "2025-12-07T20:38:14.332470+00:00",
        "meta_object_name": "NOVA 1",
        "meta_object_id": "1981-044A",
        "meta_epoch": "2025-12-07T02:01:30.730944",
        "meta_mean_motion": 13.23277692,
        "meta_eccentricity": 0.00157069,
        "meta_inclination": 89.8524,
        "meta_ra_of_asc_node": 91.4651,
        "meta_arg_of_pericenter": 117.9107,
        "meta_mean_anomaly": 55.7085,
        "meta_ephemeris_type": 0,
        "meta_classification_type": "U",
        "meta_norad_cat_id": 12458,
        "meta_element_set_no": 999,
        "meta_rev_at_epoch": 15111,
        "meta_bstar": 0.00025729943,
        "meta_mean_motion_dot": 1.18e-06,
        "meta_mean_motion_ddot": 0,
        "tle_line1": "1 12458U 81044A   25341.08438346  .00000118  00000+0  25730-3 0  9997",
        "tle_line2": "2 12458  89.8524  91.4651 0015706 117.9107  55.7085 13.23277692151110"
      },
      "geometry": {
        "type": "Point",
        "coordinates": [
          -86.47260883592001,
          -85.9246927477947
        ]
      }
    }
  ]
}